{
  "type": "FeatureCollection",
  "features": [
    {
      "type": "Feature",
      "properties": {
        "norad_id": 66612,
        "name": "STARLINK-36039",
        "group": "last-30-days",
        "lat": 37.117306468604916,
        "lon": -47.70649251669521,
        "alt_km": 437.1279633626591,
        "timestamp": "2025-12-13T18:50:03.173217+00:00",
        "meta_object_name": "STARLINK-36039",
        "meta_object_id": "2025-270AA",
        "meta_epoch": "2025-12-13T06:00:02.000160",
        "meta_mean_motion": 15.43406934,
        "meta_eccentricity": 0.00015737,
        "meta_inclination": 42.9997,
        "meta_ra_of_asc_node": 189.687,
        "meta_arg_of_pericenter": 258.1651,
        "meta_mean_anomaly": 126.8652,
        "meta_ephemeris_type": 0,
        "meta_classification_type": "U",
        "meta_norad_cat_id": 66612,
        "meta_element_set_no": 999,
        "meta_rev_at_epoch": 448,
        "meta_bstar": -0.043390357,
        "meta_mean_motion_dot": -0.01791267,
        "meta_mean_motion_ddot": 0,
        "tle_line1": "1 66612U 25270AA  25347.25002315 -.01791267  00000+0 -43390-1 0  9990",
        "tle_line2": "2 66612  42.9997 189.6870 0001573 258.1651 126.8652 15.43406934  4481"
      },
      "geometry": {
        "type": "Point",
        "coordinates": [
          -47.70649251669521,
          37.117306468604916
        ]
      }
    },
    {
      "type": "Feature",
      "properties": {
        "norad_id": 66613,
        "name": "STARLINK-36037",
        "group": "last-30-days",
        "lat": 27.009676382257375,
        "lon": -26.614895618140682,
        "alt_km": 430.7946005486465,
        "timestamp": "2025-12-13T18:50:03.173229+00:00",
        "meta_object_name": "STARLINK-36037",
        "meta_object_id": "2025-270AB",
        "meta_epoch": "2025-12-13T06:00:02.000160",
        "meta_mean_motion": 15.46389746,
        "meta_eccentricity": 0.00019317,
        "meta_inclination": 42.9999,
        "meta_ra_of_asc_node": 189.6509,
        "meta_arg_of_pericenter": 264.039,
        "meta_mean_anomaly": 136.014,
        "meta_ephemeris_type": 0,
        "meta_classification_type": "U",
        "meta_norad_cat_id": 66613,
        "meta_element_set_no": 999,
        "meta_rev_at_epoch": 448,
        "meta_bstar": -0.045159232,
        "meta_mean_motion_dot": -0.02036403,
        "meta_mean_motion_ddot": 0,
        "tle_line1": "1 66613U 25270AB  25347.25002315 -.02036403  00000+0 -45159-1 0  9991",
        "tle_line2": "2 66613  42.9999 189.6509 0001931 264.0390 136.0140 15.46389746  4486"
      },
      "geometry": {
        "type": "Point",
        "coordinates": [
          -26.614895618140682,
          27.009676382257375
        ]
      }
    },
    {
      "type": "Feature",
      "properties": {
        "norad_id": 66614,
        "name": "STARLINK-36040",
        "group": "last-30-days",
        "lat": 13.834340706495931,
        "lon": -8.829130179044226,
        "alt_km": 413.7166591418427,
        "timestamp": "2025-12-13T18:50:03.173241+00:00",
        "meta_object_name": "STARLINK-36040",
        "meta_object_id": "2025-270AC",
        "meta_epoch": "2025-12-13T06:00:02.000160",
        "meta_mean_motion": 15.50692353,
        "meta_eccentricity": 0.00017362,
        "meta_inclination": 43,
        "meta_ra_of_asc_node": 189.623,
        "meta_arg_of_pericenter": 275.5249,
        "meta_mean_anomaly": 135.3508,
        "meta_ephemeris_type": 0,
        "meta_classification_type": "U",
        "meta_norad_cat_id": 66614,
        "meta_element_set_no": 999,
        "meta_rev_at_epoch": 432,
        "meta_bstar": -0.0034028276,
        "meta_mean_motion_dot": -0.00195856,
        "meta_mean_motion_ddot": 0,
        "tle_line1": "1 66614U 25270AC  25347.25002315 -.00195856  00000+0 -34028-2 0  9992",
        "tle_line2": "2 66614  43.0000 189.6230 0001736 275.5249 135.3508 15.50692353  4325"
      },
      "geometry": {
        "type": "Point",
        "coordinates": [
          -8.829130179044226,
          13.834340706495931
        ]
      }
    },
    {
      "type": "Feature",
      "properties": {
        "norad_id": 66615,
        "name": "STARLINK-35988",
        "group": "last-30-days",
        "lat": 16.247195833663774,
        "lon": -11.720276705079579,
        "alt_km": 419.2252548136412,
        "timestamp": "2025-12-13T18:50:03.173251+00:00",
        "meta_object_name": "STARLINK-35988",
        "meta_object_id": "2025-270AD",
        "meta_epoch": "2025-12-13T06:00:02.000160",
        "meta_mean_motion": 15.50891298,
        "meta_eccentricity": 0.00016861,
        "meta_inclination": 43.0002,
        "meta_ra_of_asc_node": 189.6277,
        "meta_arg_of_pericenter": 272.8872,
        "meta_mean_anomaly": 136.0616,
        "meta_ephemeris_type": 0,
        "meta_classification_type": "U",
        "meta_norad_cat_id": 66615,
        "meta_element_set_no": 999,
        "meta_rev_at_epoch": 432,
        "meta_bstar": -0.039632149,
        "meta_mean_motion_dot": -0.02089504,
        "meta_mean_motion_ddot": 0,
        "tle_line1": "1 66615U 25270AD  25347.25002315 -.02089504  00000+0 -39632-1 0  9992",
        "tle_line2": "2 66615  43.0002 189.6277 0001686 272.8872 136.0616 15.50891298  4322"
      },
      "geometry": {
        "type": "Point",
        "coordinates": [
          -11.720276705079579,
          16.247195833663774
        ]
      }
    },
    {
      "type": "Feature",
      "properties": {
        "norad_id": 66616,
        "name": "STARLINK-35391",
        "group": "last-30-days",
        "lat": 12.597427872340925,
        "lon": -7.385460223808103,
        "alt_km": 413.98954987399884,
        "timestamp": "2025-12-13T18:50:03.173261+00:00",
        "meta_object_name": "STARLINK-35391",
        "meta_object_id": "2025-270AE",
        "meta_epoch": "2025-12-13T06:00:02.000160",
        "meta_mean_motion": 15.50724723,
        "meta_eccentricity": 0.00018285,
        "meta_inclination": 42.9999,
        "meta_ra_of_asc_node": 189.6192,
        "meta_arg_of_pericenter": 269.036,
        "meta_mean_anomaly": 143.7582,
        "meta_ephemeris_type": 0,
        "meta_classification_type": "U",
        "meta_norad_cat_id": 66616,
        "meta_element_set_no": 999,
        "meta_rev_at_epoch": 459,
        "meta_bstar": -0.0051330404,
        "meta_mean_motion_dot": -0.00292049,
        "meta_mean_motion_ddot": 0,
        "tle_line1": "1 66616U 25270AE  25347.25002315 -.00292049  00000+0 -51330-2 0  9991",
        "tle_line2": "2 66616  42.9999 189.6192 0001828 269.0360 143.7582 15.50724723  4594"
      },
      "geometry": {
        "type": "Point",
        "coordinates": [
          -7.385460223808103,
          12.597427872340925
        ]
      }
    },
    {
      "type": "Feature",
      "properties": {
        "norad_id": 66617,
        "name": "STARLINK-35940",
        "group": "last-30-days",
        "lat": 15.496379926694612,
        "lon": -9.761517518171248,
        "alt_km": 417.2427166471034,
        "timestamp": "2025-12-13T18:50:03.173275+00:00",
        "meta_object_name": "STARLINK-35940",
        "meta_object_id": "2025-271A",
        "meta_epoch": "2025-12-13T06:00:02.000160",
        "meta_mean_motion": 15.4933644,
        "meta_eccentricity": 6.504e-05,
        "meta_inclination": 53.1599,
        "meta_ra_of_asc_node": 184.7934,
        "meta_arg_of_pericenter": 89.1326,
        "meta_mean_anomaly": 327.0334,
        "meta_ephemeris_type": 0,
        "meta_classification_type": "U",
        "meta_norad_cat_id": 66617,
        "meta_element_set_no": 999,
        "meta_rev_at_epoch": 432,
        "meta_bstar": -0.00030617627,
        "meta_mean_motion_dot": -0.00017454,
        "meta_mean_motion_ddot": 0,
        "tle_line1": "1 66617U 25271A   25347.25002315 -.00017454  00000+0 -30618-3 0  9995",
        "tle_line2": "2 66617  53.1599 184.7934 0000650  89.1326 327.0334 15.49336440  4326"
      },
      "geometry": {
        "type": "Point",
        "coordinates": [
          -9.761517518171248,
          15.496379926694612
        ]
      }
    },
    {
      "type": "Feature",
      "properties": {
        "norad_id": 66618,
        "name": "STARLINK-35970",
        "group": "last-30-days",
        "lat": -26.345097691768693,
        "lon": 23.916985059986345,
        "alt_km": 422.5793262007419,
        "timestamp": "2025-12-13T18:50:03.173286+00:00",
        "meta_object_name": "STARLINK-35970",
        "meta_object_id": "2025-271B",
        "meta_epoch": "2025-12-13T06:00:02.000160",
        "meta_mean_motion": 15.4925321,
        "meta_eccentricity": 5.218e-05,
        "meta_inclination": 53.16,
        "meta_ra_of_asc_node": 184.6805,
        "meta_arg_of_pericenter": 67.433,
        "meta_mean_anomaly": 42.0093,
        "meta_ephemeris_type": 0,
        "meta_classification_type": "U",
        "meta_norad_cat_id": 66618,
        "meta_element_set_no": 999,
        "meta_rev_at_epoch": 432,
        "meta_bstar": 0.0011892993,
        "meta_mean_motion_dot": 0.00066127,
        "meta_mean_motion_ddot": 0,
        "tle_line1": "1 66618U 25271B   25347.25002315  .00066127  00000+0  11893-2 0  9998",
        "tle_line2": "2 66618  53.1600 184.6805 0000521  67.4330  42.0093 15.49253210  4326"
      },
      "geometry": {
        "type": "Point",
        "coordinates": [
          23.916985059986345,
          -26.345097691768693
        ]
      }
    }
  ]
}